CTC2_L_00243016-03
1 10062U 25821IL  26075.70043981  .00000000  00000+0  00000-0 0  9998
2 10062  75.0000 180.0000 0000000   0.0000   0.0000 14.15679949    18
CTC2_L_00243016-04
1 10063U 24923QG  26075.70043981  .00000000  00000+0  00000-0 0  9991
2 10063  75.0000 180.0000 0000000   0.0000  90.0000 14.15679949    18
CTC2_L_00243017-01
1 10064U 26376UV  26075.70043981  .00000000  00000+0  00000-0 0  9996
2 10064  75.0000 192.0000 0000000   0.0000 192.0000 14.15679949    15
CTC2_L_00243017-02
1 10065U 23748LF  26075.70043981  .00000000  00000+0  00000-0 0  9997
2 10065  75.0000 192.0000 0000000   0.0000 282.0000 14.15679949    16
CTC2_L_00243017-03
1 10066U 22162IB  26075.70043981  .00000000  00000+0  00000-0 0  9997
2 10066  75.0000 192.0000 0000000   0.0000  12.0000 14.15679949    18
CTC2_L_00243017-04
1 10067U 22642RX  26075.70043981  .00000000  00000+0  00000-0 0  9991
2 10067  75.0000 192.0000 0000000   0.0000 102.0000 14.15679949    19
CTC2_L_00243018-01
1 10068U 22278IQ  26075.70043981  .00000000  00000+0  00000-0 0  9997
2 10068  75.0000 204.0000 0000000   0.0000 204.0000 14.15679949    17
CTC2_L_00243018-02
1 10069U 26503WU  26075.70043981  .00000000  00000+0  00000-0 0  9993
2 10069  75.0000 204.0000 0000000   0.0000 294.0000 14.15679949    17
CTC2_L_00243018-03
1 10070U 25166IS  26075.70043981  .00000000  00000+0  00000-0 0  9999
2 10070  75.0000 204.0000 0000000   0.0000  24.0000 14.15679949    10
CTC2_L_00243018-04
1 10071U 22906GO  26075.70043981  .00000000  00000+0  00000-0 0  9999
2 10071  75.0000 204.0000 0000000   0.0000 114.0000 14.15679949    11
CTC2_L_00243019-01
1 10072U 25212AU  26075.70043981  .00000000  00000+0  00000-0 0  9993
2 10072  75.0000 216.0000 0000000   0.0000 216.0000 14.15679949    18
CTC2_L_00243019-02
1 10073U 24595DU  26075.70043981  .00000000  00000+0  00000-0 0  9997
2 10073  75.0000 216.0000 0000000   0.0000 306.0000 14.15679949    19
CTC2_L_00243019-03
1 10074U 26695XE  26075.70043981  .00000000  00000+0  00000-0 0  9991
2 10074  75.0000 216.0000 0000000   0.0000  36.0000 14.15679949    10
CTC2_L_00243019-04
1 10075U 24924SR  26075.70043981  .00000000  00000+0  00000-0 0  9995
2 10075  75.0000 216.0000 0000000   0.0000 126.0000 14.15679949    11
CTC2_L_00243020-01
1 10076U 23428QB  26075.70043981  .00000000  00000+0  00000-0 0  9994
2 10076  75.0000 228.0000 0000000   0.0000 228.0000 14.15679949    18
CTC2_L_00243020-02
1 10077U 26244DV  26075.70043981  .00000000  00000+0  00000-0 0  9994
2 10077  75.0000 228.0000 0000000   0.0000 318.0000 14.15679949    19
CTC2_L_00243020-03
1 10078U 22119GA  26075.70043981  .00000000  00000+0  00000-0 0  9992
2 10078  75.0000 228.0000 0000000   0.0000  48.0000 14.15679949    10
CTC2_L_00243020-04
1 10079U 26224KG  26075.70043981  .00000000  00000+0  00000-0 0  9994
2 10079  75.0000 228.0000 0000000   0.0000 138.0000 14.15679949    11
CTC2_L_00243021-01
1 10080U 22300HE  26075.70043981  .00000000  00000+0  00000-0 0  9997
2 10080  75.0000 240.0000 0000000   0.0000 240.0000 14.15679949    11
CTC2_L_00243021-02
1 10081U 26814MN  26075.70043981  .00000000  00000+0  00000-0 0  9992
2 10081  75.0000 240.0000 0000000   0.0000 330.0000 14.15679949    12
CTC2_L_00243021-03
1 10082U 25067L   26075.70043981  .00000000  00000+0  00000-0 0  9992
2 10082  75.0000 240.0000 0000000   0.0000  60.0000 14.15679949    13
CTC2_L_00243021-04
1 10083U 23701HM  26075.70043981  .00000000  00000+0  00000-0 0  9996
2 10083  75.0000 240.0000 0000000   0.0000 150.0000 14.15679949    14
CTC2_L_00243022-01
1 10084U 23499QG  26075.70043981  .00000000  00000+0  00000-0 0  9991
2 10084  75.0000 252.0000 0000000   0.0000 252.0000 14.15679949    11
CTC2_L_00243022-02
1 10085U 26066ZB  26075.70043981  .00000000  00000+0  00000-0 0  9995
2 10085  75.0000 252.0000 0000000   0.0000 342.0000 14.15679949    12
CTC2_L_00243022-03
1 10086U 26875QC  26075.70043981  .00000000  00000+0  00000-0 0  9994
2 10086  75.0000 252.0000 0000000   0.0000  72.0000 14.15679949    13
CTC2_L_00243022-04
1 10087U 24488LH  26075.70043981  .00000000  00000+0  00000-0 0  9993
2 10087  75.0000 252.0000 0000000   0.0000 162.0000 14.15679949    14
CTC2_L_00243023-01
1 10088U 26682ZR  26075.70043981  .00000000  00000+0  00000-0 0  9992
2 10088  75.0000 264.0000 0000000   0.0000 264.0000 14.15679949    11
CTC2_L_00243023-02
1 10089U 22890MC  26075.70043981  .00000000  00000+0  00000-0 0  9990
2 10089  75.0000 264.0000 0000000   0.0000 354.0000 14.15679949    12
CTC2_L_00243023-03
1 10090U 25883ET  26075.70043981  .00000000  00000+0  00000-0 0  9997
2 10090  75.0000 264.0000 0000000   0.0000  84.0000 14.15679949    14
CTC2_L_00243023-04
1 10091U 25466DY  26075.70043981  .00000000  00000+0  00000-0 0  9995
2 10091  75.0000 264.0000 0000000   0.0000 174.0000 14.15679949    15
CTC2_L_00243024-01
1 10092U 24252JQ  26075.70043981  .00000000  00000+0  00000-0 0  9998
2 10092  75.0000 276.0000 0000000   0.0000 276.0000 14.15679949    12
CTC2_L_00243024-02
1 10093U 24105PW  26075.70043981  .00000000  00000+0  00000-0 0  9996
2 10093  75.0000 276.0000 0000000   0.0000   6.0000 14.15679949    14
CTC2_L_00243024-03
1 10094U 26782HI  26075.70043981  .00000000  00000+0  00000-0 0  9990
2 10094  75.0000 276.0000 0000000   0.0000  96.0000 14.15679949    14
CTC2_L_00243024-04
1 10095U 22511NM  26075.70043981  .00000000  00000+0  00000-0 0  9997
2 10095  75.0000 276.0000 0000000   0.0000 186.0000 14.15679949    15
CTC2_L_00243025-01
1 10096U 22341YS  26075.70043981  .00000000  00000+0  00000-0 0  9999
2 10096  75.0000 288.0000 0000000   0.0000 288.0000 14.15679949    12
CTC2_L_00243025-02
1 10097U 24825SU  26075.70043981  .00000000  00000+0  00000-0 0  9999
2 10097  75.0000 288.0000 0000000   0.0000  18.0000 14.15679949    14
CTC2_L_00243025-03
1 10098U 23845PE  26075.70043981  .00000000  00000+0  00000-0 0  9991
2 10098  75.0000 288.0000 0000000   0.0000 108.0000 14.15679949    15
CTC2_L_00243025-04
1 10099U 26714YR  26075.70043981  .00000000  00000+0  00000-0 0  9990
2 10099  75.0000 288.0000 0000000   0.0000 198.0000 14.15679949    15
CTC2_L_00243026-01
1 10100U 25884OI  26075.70043981  .00000000  00000+0  00000-0 0  9990
2 10100  75.0000 300.0000 0000000   0.0000 300.0000 14.15679949    18
CTC2_L_00243026-02
1 10101U 25015YA  26075.70043981  .00000000  00000+0  00000-0 0  9997
2 10101  75.0000 300.0000 0000000   0.0000  30.0000 14.15679949    19
CTC2_L_00243026-03
1 10102U 23038UA  26075.70043981  .00000000  00000+0  00000-0 0  9991
2 10102  75.0000 300.0000 0000000   0.0000 120.0000 14.15679949    10
CTC2_L_00243026-04
1 10103U 22330GV  26075.70043981  .00000000  00000+0  00000-0 0  9996
2 10103  75.0000 300.0000 0000000   0.0000 210.0000 14.15679949    11
CTC2_L_00243027-01
1 10104U 23657FO  26075.70043981  .00000000  00000+0  00000-0 0  9990
2 10104  75.0000 312.0000 0000000   0.0000 312.0000 14.15679949    18
CTC2_L_00243027-02
1 10105U 24582XG  26075.70043981  .00000000  00000+0  00000-0 0  9999
2 10105  75.0000 312.0000 0000000   0.0000  42.0000 14.15679949    19
CTC2_L_00243027-03
1 10106U 22508YA  26075.70043981  .00000000  00000+0  00000-0 0  9996
2 10106  75.0000 312.0000 0000000   0.0000 132.0000 14.15679949    10
CTC2_L_00243027-04
1 10107U 23856YN  26075.70043981  .00000000  00000+0  00000-0 0  9994
2 10107  75.0000 312.0000 0000000   0.0000 222.0000 14.15679949    11
CTC2_L_00243028-01
1 10108U 25526T   26075.70043981  .00000000  00000+0  00000-0 0  9991
2 10108  75.0000 324.0000 0000000   0.0000 324.0000 14.15679949    18
CTC2_L_00243028-02
1 10109U 26253GG  26075.70043981  .00000000  00000+0  00000-0 0  9990
2 10109  75.0000 324.0000 0000000   0.0000  54.0000 14.15679949    19
CTC2_L_00243028-03
1 10110U 23992SH  26075.70043981  .00000000  00000+0  00000-0 0  9999
2 10110  75.0000 324.0000 0000000   0.0000 144.0000 14.15679949    11
CTC2_L_00243028-04
1 10111U 23844WA  26075.70043981  .00000000  00000+0  00000-0 0  9996
2 10111  75.0000 324.0000 0000000   0.0000 234.0000 14.15679949    12
CTC2_L_00243029-01
1 10112U 26149UX  26075.70043981  .00000000  00000+0  00000-0 0  9998
2 10112  75.0000 336.0000 0000000   0.0000 336.0000 14.15679949    19
CTC2_L_00243029-02
1 10113U 24771HI  26075.70043981  .00000000  00000+0  00000-0 0  9998
2 10113  75.0000 336.0000 0000000   0.0000  66.0000 14.15679949    10
CTC2_L_00243029-03
1 10114U 24992KU  26075.70043981  .00000000  00000+0  00000-0 0  9994
2 10114  75.0000 336.0000 0000000   0.0000 156.0000 14.15679949    11
CTC2_L_00243029-04
1 10115U 25867DM  26075.70043981  .00000000  00000+0  00000-0 0  9997
2 10115  75.0000 336.0000 0000000   0.0000 246.0000 14.15679949    12
CTC2_L_00243030-01
1 10116U 25153ER  26075.70043981  .00000000  00000+0  00000-0 0  9996
2 10116  75.0000 348.0000 0000000   0.0000 348.0000 14.15679949    19
CTC2_L_00243030-02
1 10117U 22322WD  26075.70043981  .00000000  00000+0  00000-0 0  9992
2 10117  75.0000 348.0000 0000000   0.0000  78.0000 14.15679949    10
CTC2_L_00243030-03
1 10118U 26419CS  26075.70043981  .00000000  00000+0  00000-0 0  9994
2 10118  75.0000 348.0000 0000000   0.0000 168.0000 14.15679949    11
CTC2_L_00243030-04
1 10119U 23654QM  26075.70043981  .00000000  00000+0  00000-0 0  9993
2 10119  75.0000 348.0000 0000000   0.0000 258.0000 14.15679949    12
